GLOBALSTAR M024 [-]     
1 25883U 99043A   22230.80306819  .00000020  00000+0  30204-2 0  9997
2 25883  51.9987 192.2457 0001090 212.5994 212.0694 11.10149691    95
GLOBALSTAR M027 [-]     
1 25884U 99043B   22230.47774037 -.00000009  00000+0  20566-2 0  9990
2 25884  52.0171 241.7065 0021270 121.3677 238.9200 11.04362693 27074
GLOBALSTAR M054 [-]     
1 25885U 99043C   22230.77373221 -.00000084  00000+0 -33356-3 0  9990
2 25885  52.0120 181.7346 0005222 177.7707 245.2322 11.39199019  1270
GLOBALSTAR M053 [-]     
1 25886U 99043D   22230.77782640 -.00000082  00000+0 -37906-3 0  9993
2 25886  51.9989  71.4937 0003797 113.5775 356.1696 11.27644845  2862
GLOBALSTAR M058 [-]     
1 25907U 99049A   22230.47549641 -.00000065  00000+0  26329-3 0  9999
2 25907  51.9974 349.3237 0002442  71.1168 288.9932 11.93152772 29366
GLOBALSTAR M050 [-]     
1 25908U 99049B   22230.93898304 -.00000174  00000+0 -96609-3 0  9994
2 25908  51.9992  72.9507 0009402 127.7908  12.6330 12.07404209 23379
GLOBALSTAR M033 [-]     
1 25909U 99049C   22230.71423434 -.00000032  00000+0  57388-3 0  9992
2 25909  51.9938  16.7811 0012081 322.5752  37.4253 12.20247998409577
GLOBALSTAR M055 [-]     
1 25910U 99049D   22230.65668420 -.00000083  00000+0  93920-4 0  9992
2 25910  52.0023  77.9717 0007156 138.1350 222.0049 12.29368466 41167
GLOBALSTAR M057 [-]     
1 25943U 99058A   22230.45537487 -.00000065  00000+0  25174-3 0  9999
2 25943  52.0001  41.7140 0003296  48.3241 311.7891 12.24760905 40260
GLOBALSTAR M059 [-]     
1 25944U 99058B   22230.21840154 -.00000045  00000+0  50611-3 0  9994
2 25944  52.0015 124.2845 0001197  54.7277 120.4917 11.99943213449918
GLOBALSTAR M056 [-]     
1 25945U 99058C   22231.07686937 -.00000091  00000+0 -38733-4 0  9991
2 25945  51.9959 150.4728 0001210 319.2875  53.9161 12.04752366 38148
GLOBALSTAR M031 [-]     
1 25946U 99058D   22230.37935346 -.00000138  00000+0 -48653-3 0  9998
2 25946  51.9964 106.5140 0000781 247.8633 283.2674 12.15981118 39010
GLOBALSTAR M039 [-]     
1 25961U 99062A   22230.27235332 -.00000075  00000+0  16268-3 0  9993
2 25961  51.9832 177.5616 0002548 219.3315 140.7367 12.62242999 49646
GLOBALSTAR M034 [-]     
1 25962U 99062B   22230.36465774 -.00000066  00000+0  23863-3 0  9998
2 25962  51.9855 178.6088 0014202 249.6629 259.9158 11.79405802 16401
GLOBALSTAR M029 [-]     
1 25963U 99062C   22230.70115403 -.00000071  00000+0  18946-3 0  9990
2 25963  51.9832  11.8906 0001908 235.9856 137.2296 11.99854510 45064
GLOBALSTAR M061 [-]     
1 25964U 99062D   22230.47119666 -.00000086  00000+0 -10165-3 0  9992
2 25964  51.9827 348.6790 0006205 176.2404 259.8216 11.76738139999774
