[{"OBJECT_NAME":"GLOBALSTAR M024 [-]","OBJECT_ID":"1999-043A","EPOCH":"2022-08-18T19:16:25.091616","MEAN_MOTION":11.10149691,"ECCENTRICITY":0.000109,"INCLINATION":51.9987,"RA_OF_ASC_NODE":192.2457,"ARG_OF_PERICENTER":212.5994,"MEAN_ANOMALY":212.0694,"EPHEMERIS_TYPE":0,"CLASSIFICATION_TYPE":"U","NORAD_CAT_ID":25883,"ELEMENT_SET_NO":999,"REV_AT_EPOCH":9,"BSTAR":0.0030204,"MEAN_MOTION_DOT":2.0e-7,"MEAN_MOTION_DDOT":0},{"OBJECT_NAME":"GLOBALSTAR M027 [-]","OBJECT_ID":"1999-043B","EPOCH":"2022-08-18T11:27:56.767968","MEAN_MOTION":11.04362693,"ECCENTRICITY":0.002127,"INCLINATION":52.0171,"RA_OF_ASC_NODE":241.7065,"ARG_OF_PERICENTER":121.3677,"MEAN_ANOMALY":238.92,"EPHEMERIS_TYPE":0,"CLASSIFICATION_TYPE":"U","NORAD_CAT_ID":25884,"ELEMENT_SET_NO":999,"REV_AT_EPOCH":2707,"BSTAR":0.0020566,"MEAN_MOTION_DOT":-9.0e-8,"MEAN_MOTION_DDOT":0},{"OBJECT_NAME":"GLOBALSTAR M054 [-]","OBJECT_ID":"1999-043C","EPOCH":"2022-08-18T18:34:10.462944","MEAN_MOTION":11.39199019,"ECCENTRICITY":0.0005222,"INCLINATION":52.012,"RA_OF_ASC_NODE":181.7346,"ARG_OF_PERICENTER":177.7707,"MEAN_ANOMALY":245.2322,"EPHEMERIS_TYPE":0,"CLASSIFICATION_TYPE":"U","NORAD_CAT_ID":25885,"ELEMENT_SET_NO":999,"REV_AT_EPOCH":127,"BSTAR":-0.00033356,"MEAN_MOTION_DOT":-8.4e-7,"MEAN_MOTION_DDOT":0},{"OBJECT_NAME":"GLOBALSTAR M053 [-]","OBJECT_ID":"1999-043D","EPOCH":"2022-08-18T18:40:04.200960","MEAN_MOTION":11.27644845,"ECCENTRICITY":0.0003797,"INCLINATION":51.9989,"RA_OF_ASC_NODE":71.4937,"ARG_OF_PERICENTER":113.5775,"MEAN_ANOMALY":356.1696,"EPHEMERIS_TYPE":0,"CLASSIFICATION_TYPE":"U","NORAD_CAT_ID":25886,"ELEMENT_SET_NO":999,"REV_AT_EPOCH":286,"BSTAR":-0.00037906,"MEAN_MOTION_DOT":-8.2e-7,"MEAN_MOTION_DDOT":0},{"OBJECT_NAME":"GLOBALSTAR M058 [-]","OBJECT_ID":"1999-049A","EPOCH":"2022-08-18T11:24:42.889824","MEAN_MOTION":11.93152772,"ECCENTRICITY":0.0002442,"INCLINATION":51.9974,"RA_OF_ASC_NODE":349.3237,"ARG_OF_PERICENTER":71.1168,"MEAN_ANOMALY":288.9932,"EPHEMERIS_TYPE":0,"CLASSIFICATION_TYPE":"U","NORAD_CAT_ID":25907,"ELEMENT_SET_NO":999,"REV_AT_EPOCH":2936,"BSTAR":0.00026329,"MEAN_MOTION_DOT":-6.5e-7,"MEAN_MOTION_DDOT":0},{"OBJECT_NAME":"GLOBALSTAR M050 [-]","OBJECT_ID":"1999-049B","EPOCH":"2022-08-18T22:32:08.134656","MEAN_MOTION":12.07404209,"ECCENTRICITY":0.0009402,"INCLINATION":51.9992,"RA_OF_ASC_NODE":72.9507,"ARG_OF_PERICENTER":127.7908,"MEAN_ANOMALY":12.633,"EPHEMERIS_TYPE":0,"CLASSIFICATION_TYPE":"U","NORAD_CAT_ID":25908,"ELEMENT_SET_NO":999,"REV_AT_EPOCH":2337,"BSTAR":-0.00096609,"MEAN_MOTION_DOT":-1.74e-6,"MEAN_MOTION_DDOT":0},{"OBJECT_NAME":"GLOBALSTAR M033 [-]","OBJECT_ID":"1999-049C","EPOCH":"2022-08-18T17:08:29.846976","MEAN_MOTION":12.20247998,"ECCENTRICITY":0.0012081,"INCLINATION":51.9938,"RA_OF_ASC_NODE":16.7811,"ARG_OF_PERICENTER":322.5752,"MEAN_ANOMALY":37.4253,"EPHEMERIS_TYPE":0,"CLASSIFICATION_TYPE":"U","NORAD_CAT_ID":25909,"ELEMENT_SET_NO":999,"REV_AT_EPOCH":40957,"BSTAR":0.00057388,"MEAN_MOTION_DOT":-3.2e-7,"MEAN_MOTION_DDOT":0},{"OBJECT_NAME":"GLOBALSTAR M055 [-]","OBJECT_ID":"1999-049D","EPOCH":"2022-08-18T15:45:37.514880","MEAN_MOTION":12.29368466,"ECCENTRICITY":0.0007156,"INCLINATION":52.0023,"RA_OF_ASC_NODE":77.9717,"ARG_OF_PERICENTER":138.135,"MEAN_ANOMALY":222.0049,"EPHEMERIS_TYPE":0,"CLASSIFICATION_TYPE":"U","NORAD_CAT_ID":25910,"ELEMENT_SET_NO":999,"REV_AT_EPOCH":4116,"BSTAR":9.392e-5,"MEAN_MOTION_DOT":-8.3e-7,"MEAN_MOTION_DDOT":0},{"OBJECT_NAME":"GLOBALSTAR M057 [-]","OBJECT_ID":"1999-058A","EPOCH":"2022-08-18T10:55:44.388768","MEAN_MOTION":12.24760905,"ECCENTRICITY":0.0003296,"INCLINATION":52.0001,"RA_OF_ASC_NODE":41.714,"ARG_OF_PERICENTER":48.3241,"MEAN_ANOMALY":311.7891,"EPHEMERIS_TYPE":0,"CLASSIFICATION_TYPE":"U","NORAD_CAT_ID":25943,"ELEMENT_SET_NO":999,"REV_AT_EPOCH":4026,"BSTAR":0.00025174,"MEAN_MOTION_DOT":-6.5e-7,"MEAN_MOTION_DDOT":0},{"OBJECT_NAME":"GLOBALSTAR M059 [-]","OBJECT_ID":"1999-058B","EPOCH":"2022-08-18T05:14:29.893056","MEAN_MOTION":11.99943213,"ECCENTRICITY":0.0001197,"INCLINATION":52.0015,"RA_OF_ASC_NODE":124.2845,"ARG_OF_PERICENTER":54.7277,"MEAN_ANOMALY":120.4917,"EPHEMERIS_TYPE":0,"CLASSIFICATION_TYPE":"U","NORAD_CAT_ID":25944,"ELEMENT_SET_NO":999,"REV_AT_EPOCH":44991,"BSTAR":0.00050611,"MEAN_MOTION_DOT":-4.5e-7,"MEAN_MOTION_DDOT":0},{"OBJECT_NAME":"GLOBALSTAR M056 [-]","OBJECT_ID":"1999-058C","EPOCH":"2022-08-19T01:50:41.513568","MEAN_MOTION":12.04752366,"ECCENTRICITY":0.000121,"INCLINATION":51.9959,"RA_OF_ASC_NODE":150.4728,"ARG_OF_PERICENTER":319.2875,"MEAN_ANOMALY":53.9161,"EPHEMERIS_TYPE":0,"CLASSIFICATION_TYPE":"U","NORAD_CAT_ID":25945,"ELEMENT_SET_NO":999,"REV_AT_EPOCH":3814,"BSTAR":-3.8733e-5,"MEAN_MOTION_DOT":-9.1e-7,"MEAN_MOTION_DDOT":0},{"OBJECT_NAME":"GLOBALSTAR M031 [-]","OBJECT_ID":"1999-058D","EPOCH":"2022-08-18T09:06:16.138944","MEAN_MOTION":12.15981118,"ECCENTRICITY":7.81e-5,"INCLINATION":51.9964,"RA_OF_ASC_NODE":106.514,"ARG_OF_PERICENTER":247.8633,"MEAN_ANOMALY":283.2674,"EPHEMERIS_TYPE":0,"CLASSIFICATION_TYPE":"U","NORAD_CAT_ID":25946,"ELEMENT_SET_NO":999,"REV_AT_EPOCH":3901,"BSTAR":-0.00048653,"MEAN_MOTION_DOT":-1.38e-6,"MEAN_MOTION_DDOT":0},{"OBJECT_NAME":"GLOBALSTAR M039 [-]","OBJECT_ID":"1999-062A","EPOCH":"2022-08-18T06:32:11.326848","MEAN_MOTION":12.62242999,"ECCENTRICITY":0.0002548,"INCLINATION":51.9832,"RA_OF_ASC_NODE":177.5616,"ARG_OF_PERICENTER":219.3315,"MEAN_ANOMALY":140.7367,"EPHEMERIS_TYPE":0,"CLASSIFICATION_TYPE":"U","NORAD_CAT_ID":25961,"ELEMENT_SET_NO":999,"REV_AT_EPOCH":4964,"BSTAR":0.00016268,"MEAN_MOTION_DOT":-7.5e-7,"MEAN_MOTION_DDOT":0},{"OBJECT_NAME":"GLOBALSTAR M034 [-]","OBJECT_ID":"1999-062B","EPOCH":"2022-08-18T08:45:06.428736","MEAN_MOTION":11.79405802,"ECCENTRICITY":0.0014202,"INCLINATION":51.9855,"RA_OF_ASC_NODE":178.6088,"ARG_OF_PERICENTER":249.6629,"MEAN_ANOMALY":259.9158,"EPHEMERIS_TYPE":0,"CLASSIFICATION_TYPE":"U","NORAD_CAT_ID":25962,"ELEMENT_SET_NO":999,"REV_AT_EPOCH":1640,"BSTAR":0.00023863,"MEAN_MOTION_DOT":-6.6e-7,"MEAN_MOTION_DDOT":0},{"OBJECT_NAME":"GLOBALSTAR M029 [-]","OBJECT_ID":"1999-062C","EPOCH":"2022-08-18T16:49:39.708192","MEAN_MOTION":11.9985451,"ECCENTRICITY":0.0001908,"INCLINATION":51.9832,"RA_OF_ASC_NODE":11.8906,"ARG_OF_PERICENTER":235.9856,"MEAN_ANOMALY":137.2296,"EPHEMERIS_TYPE":0,"CLASSIFICATION_TYPE":"U","NORAD_CAT_ID":25963,"ELEMENT_SET_NO":999,"REV_AT_EPOCH":4506,"BSTAR":0.00018946,"MEAN_MOTION_DOT":-7.1e-7,"MEAN_MOTION_DDOT":0},{"OBJECT_NAME":"GLOBALSTAR M061 [-]","OBJECT_ID":"1999-062D","EPOCH":"2022-08-18T11:18:31.391424","MEAN_MOTION":11.76738139,"ECCENTRICITY":0.0006205,"INCLINATION":51.9827,"RA_OF_ASC_NODE":348.679,"ARG_OF_PERICENTER":176.2404,"MEAN_ANOMALY":259.8216,"EPHEMERIS_TYPE":0,"CLASSIFICATION_TYPE":"U","NORAD_CAT_ID":25964,"ELEMENT_SET_NO":999,"REV_AT_EPOCH":99977,"BSTAR":-0.00010165,"MEAN_MOTION_DOT":-8.6e-7,"MEAN_MOTION_DDOT":0}]